#aV2021  2 13  0  0  0.00000000     288 DD+AD WGS84 FIT  NGA
## 2144 518400.00000000   300.00000000 59258 0.0000000000000
+   32     1  2  3  4  5  6  7  8  9 10 11 12 13 14 15 16 17
+         18 19 20 21 22 23 24 25 26 27 28 29 30 31 32  0  0
+          0  0  0  0  0  0  0  0  0  0  0  0  0  0  0  0  0
+          0  0  0  0  0  0  0  0  0  0  0  0  0  0  0  0  0
+          0  0  0  0  0  0  0  0  0  0  0  0  0  0  0  0  0
++         2  2  2  2  2  2  2  2  2  2  2  2  2  2  2  2  2
++         2  2  2  2  2  2  2  2  2  2  2  2  2  2  2  0  0
++         0  0  0  0  0  0  0  0  0  0  0  0  0  0  0  0  0
++         0  0  0  0  0  0  0  0  0  0  0  0  0  0  0  0  0
++         0  0  0  0  0  0  0  0  0  0  0  0  0  0  0  0  0
%c cc cc ccc ccc cccc cccc cccc cccc ccccc ccccc ccccc ccccc
%c cc cc ccc ccc cccc cccc cccc cccc ccccc ccccc ccccc ccccc
%f  0.0000000  0.000000000  0.00000000000  0.000000000000000
%f  0.0000000  0.000000000  0.00000000000  0.000000000000000
%i    0    0    0    0      0      0      0      0         0
%i    0    0    0    0      0      0      0      0         0
/*      NGA, ST. LOUIS,MO.                                  
/*   EPHEMERIS COMPUTED FROM 2 DAYS OF DATA                 
/*   EPOCHA v5 SMOOTHER                                     
/*   G2139 IERS2010 SATAF SATAPC                            
*  2021  2 13  1 15  0.00000000
P  1  16715.200030   4793.528037  19937.010347    762.342633                    
V  1   9807.088051  23758.385152 -13439.028908     -0.076284                    
P  2 -13927.361314 -22443.914618  -1965.571136   -576.259597                    
V  2    907.967472  -4263.292384  31666.640619     -0.039443                    
P  3  19195.663603  -7096.773959  16793.064807    -81.505798                    
V  3 -11029.003445  18534.750966  20443.463928     -0.101083                    
P  4  26399.419780   1319.945423  -2876.242718   -179.819179                    
V  4   3276.913170   3195.337196  31439.364222     -0.026481                    
P  5 -10726.088526 -11443.784223 -21569.241843    -33.542433                    
V  5  15280.426933 -22350.491374   4469.088949     -0.010147                    
P  6  -4370.580585 -24474.810715   9336.898042     -2.981169                    
V  6   6678.512413   9866.225170  29240.530125      0.010691                    
P  7  11174.609369 -11369.103033 -20833.801753     56.704899                    
V  7  12080.387244  24559.924772  -7295.657620      0.134395                    
P  8  25806.174481   5150.814407  -4626.808321    -10.091760                    
V  8  -5984.724355   1826.128238 -31014.240117     -0.014444                    
P  9  21529.360018  -7936.894976 -13456.478532   -322.346378                    
V  9  16765.793840   3646.751816  24763.582713     -0.035704                    
P 10 -10372.086824  23253.437952   7164.301918    -60.251956                    
V 10  -7348.613488   5844.484441 -30324.257562     -0.081926                    
P 11  22895.315653   7891.643709  10041.888479    -26.225123                    
V 11   8244.259718  11597.071907 -27087.183545      0.106288                    
P 12 -18192.767644   1893.311777  18952.611472     -0.317746                    
V 12  14607.196496 -19847.354306  15947.800895     -0.052697                    
P 13 -19502.656674 -13237.977088 -12497.641766     96.572759                    
V 13  15650.244395   1501.190496 -26178.361303      0.043240                    
P 14  12663.124403 -22652.638984   5625.606071     96.420905                    
V 14   6617.559101  -3917.954057 -30626.347890      0.028055                    
P 15 -26241.752659  -2939.414602  -4642.817024   -169.798753                    
V 15   5360.955161  -3486.241756 -30077.319358      0.025896                    
P 16   7953.556154  13350.128132 -21713.368764   -279.272346                    
V 16 -18044.194427  20150.605650   6298.779408     -0.056741                    
P 17   5623.732014 -14112.808663  22216.862740    393.195930                    
V 17  26761.736074   4346.011097  -4098.757486      0.065579                    
P 18  -9003.111697  14522.279028 -20323.539135    347.005367                    
V 18 -11160.146857 -23277.649974 -11746.506366      0.018258                    
P 19  -3411.571651 -15178.028248  21259.890662    -39.248006                    
V 19  27149.881732   4905.998089   7669.404434      0.050160                    
P 20 -15442.455857  20633.713189  -5852.140762    524.722490                    
V 20    153.724379  -8293.737931 -30193.027931     -0.001799                    
P 21  18955.969271  11475.533461  15688.466313     95.096220                    
V 21   7485.932241  16950.002004 -22085.978178      0.032106                    
P 22  16660.505288   1847.710280  20768.792722   -680.377192                    
V 22 -12133.542894  23087.073583   7923.843678      0.074188                    
P 23 -16702.456548  20299.070027  -3667.143667    118.322685                    
V 23    311.673128  -5372.105614 -31382.375746      0.002956                    
P 24 -18755.650899  -9059.157274  16455.980255      2.403630                    
V 24  -8289.682647 -19711.141506 -19616.942354     -0.004613                    
P 25 -19041.326833  15568.516987   9397.260885     79.340311                    
V 25   4884.843176 -11716.664515  28806.089826      0.076763                    
P 26    251.266951  21049.027954 -16087.870160     44.067195                    
V 26 -13163.811642  15885.142344  20906.324973      0.055336                    
P 27  17886.712138  12302.622442 -15706.843621    -75.191737                    
V 27 -19518.087655   -454.398057 -22456.155637     -0.074445                    
P 28  11002.843737 -22602.039577   9423.129380    616.373483                    
V 28   8676.947948  -7172.612379 -28899.280226     -0.054023                    
P 29 -22144.637999   5516.139719 -13662.437552   -293.887613                    
V 29 -16731.539001  -4374.813536  25388.165864     -0.070600                    
P 30   2915.373725 -21504.905042 -15116.857679   -383.866961                    
V 30  10090.880621  16823.757995 -22141.633550     -0.057774                    
P 31   5679.088161  24846.909861   6472.987083    -99.738713                    
V 31  -6301.714148  -6476.520272  30481.547924     -0.023006                    
P 32  -3557.432655  15021.602868  21699.021810     18.530373                    
V 32 -27220.970040  -2661.359299  -2797.455989      0.013660                    
EOF
